STARLINK-3912           
1 52502U 22049BD  26068.32092553 -.00001533  00000+0 -78262-4 0  9994
2 52502  53.2171  40.8031 0001318  87.8622 272.2521 15.08837630212475
CURIUM ONE              
1 60242U 24128H   26068.68697111  .00012574  00000+0  74107-3 0  9992
2 60242  61.9790 197.7537 0050891 110.7183 249.9377 15.10847276 91418
